ONEWEB-0020             
1 45133U 20008C   24328.42662622  .00000623  00000+0  17494-2 0  9992
2 45133  87.8887 149.9205 0001317  86.2333 273.8945 13.10371308234375
ONEWEB-0021             
1 45134U 20008D   24328.51791575  .00000132  00000+0  34272-3 0  9992
2 45134  87.8887 149.9253 0001616  87.4757 272.6555 13.10371694234781
ONEWEB-0023             
1 45136U 20008F   24329.52301989 -.00000271  00000+0 -81259-3 0  9995
2 45136  87.8888 149.7137 0001639  98.5513 261.5800 13.10367118234226
ONEWEB-0024             
1 45137U 20008G   24329.49397203  .00000722  00000+0  20308-2 0  9992
2 45137  87.8881 149.6907 0001498  84.6043 275.5255 13.10373230234389
ONEWEB-0025             
1 45138U 20008H   24329.20681917  .00000185  00000+0  49355-3 0  9997
2 45138  87.8877 149.7475 0002083  90.4832 269.6534 13.10369759234675
ONEWEB-0026             
1 45139U 20008J   24328.91649441  .00000626  00000+0  17301-2 0  9996
2 45139  87.8885 134.6843 0001319  92.9530 267.1749 13.11419048237245
ONEWEB-0028             
1 45140U 20008K   24329.48194132 -.00000286  00000+0 -84417-3 0  9990
2 45140  87.8883 134.6053 0002115  94.3240 265.8129 13.11413503233958
ONEWEB-0032             
1 45141U 20008L   24328.15270487 -.00000653  00000+0 -19062-2 0  9993
2 45141  87.8882 150.0058 0001759  89.2093 270.9236 13.10370437233512
